NORAD_CAT_ID,OBJECT_NAME,OBJECT_TYPE,EPOCH,MEAN_MOTION,ECCENTRICITY,INCLINATION,RA_OF_ASC_NODE,ARG_OF_PERICENTER,MEAN_ANOMALY,BSTAR,MEAN_MOTION_DOT,MEAN_MOTION_DDOT,TLE_LINE0,TLE_LINE1,TLE_LINE2,SEMIMAJOR_AXIS,PERIOD,APOGEE,PERIGEE,DECAYED
51790.0,STARLINK-3631,PAYLOAD,2022-04-28 14:00:01,15.23174277,0.0001927,53.2175,204.2568,32.9646,16.3454,-0.032596,-0.00727398,0.0,0 STARLINK-3631,1 51790U 22017Y   22118.58334491 -.00727398  00000-0 -32596-1 0  9999,2 51790  53.2175 204.2568 0001927  32.9646  16.3454 15.23174277  3671,6874.41,94.539,497.6,494.951,0.0
51790.0,STARLINK-3631,PAYLOAD,2022-04-28 20:00:01,15.22791841,0.0001558,53.2173,203.1099,43.542,297.205,-0.032972,-0.00727406,0.0,0 STARLINK-3631,1 51790U 22017Y   22118.83334491 -.00727406  00000-0 -32972-1 0  9995,2 51790  53.2173 203.1099 0001558  43.5420 297.2050 15.22791841 10978,6875.561,94.563,498.497,496.355,0.0
51790.0,STARLINK-3631,PAYLOAD,2022-04-29 14:00:01,15.21642928,0.0002125,53.2175,199.6762,32.4721,100.5166,-0.033984,-0.00724872,0.0,0 STARLINK-3631,1 51790U 22017Y   22119.58334491 -.00724872  00000-0 -33984-1 0  9996,2 51790  53.2175 199.6762 0002125  32.4721 100.5166 15.21642928  3660,6879.022,94.635,502.348,499.425,0.0
51790.0,STARLINK-3631,PAYLOAD,2022-04-29 22:00:00,15.21133084,0.0001829,53.2174,198.1503,40.4978,119.1587,-0.034486,-0.00724577,0.0,0 STARLINK-3631,1 51790U 22017Y   22119.91667824 -.00724577  00000-0 -34486-1 0  9992,2 51790  53.2174 198.1503 0001829  40.4978 119.1587 15.21133084 11131,6880.559,94.666,503.682,501.165,0.0
51790.0,STARLINK-3631,PAYLOAD,2022-04-30 14:00:01,15.20111322,0.000229,53.2175,195.1061,31.2551,179.8972,-0.035372,-0.00721493,0.0,0 STARLINK-3631,1 51790U 22017Y   22120.58334491 -.00721493  00000-0 -35372-1 0  9997,2 51790  53.2175 195.1061 0002290  31.2551 179.8972 15.20111322  3633,6883.642,94.73,507.083,503.93,0.0
51790.0,STARLINK-3631,PAYLOAD,2022-04-30 22:00:00,15.19603956,0.0001682,53.2175,193.5837,48.7682,187.2128,-0.03614,-0.00725903,0.0,0 STARLINK-3631,1 51790U 22017Y   22120.91667824 -.00725903  00000-0 -36140-1 0  9997,2 51790  53.2175 193.5837 0001682  48.7682 187.2128 15.19603956  3653,6885.174,94.762,508.197,505.881,0.0
51790.0,STARLINK-3631,PAYLOAD,2022-05-01 06:00:00,15.19092623,0.000178,53.2175,192.0637,44.7617,215.4358,-0.036522,-0.00722941,0.0,0 STARLINK-3631,1 51790U 22017Y   22121.25001157 -.00722941  00000-0 -36522-1 0  9999,2 51790  53.2175 192.0637 0001780  44.7617 215.4358 15.19092623 11334,6886.719,94.793,509.809,507.358,0.0
51790.0,STARLINK-3631,PAYLOAD,2022-05-01 14:00:01,15.1858143,0.0001955,53.2175,190.5469,36.7162,247.084,-0.036976,-0.00721269,0.0,0 STARLINK-3631,1 51790U 22017Y   22121.58334491 -.00721269  00000-0 -36976-1 0  9990,2 51790  53.2175 190.5469 0001955  36.7162 247.0840 15.18581430  3639,6888.264,94.825,511.476,508.782,0.0
51790.0,STARLINK-3631,PAYLOAD,2022-05-01 22:00:01,15.18074011,0.0001554,53.2176,189.028,48.4103,258.4438,-0.037795,-0.0072608,0.0,0 STARLINK-3631,1 51790U 22017Y   22121.91668981 -.00726080  00000-0 -37795-1 0  9997,2 51790  53.2176 189.0280 0001554  48.4103 258.4438 15.18074011  3657,6889.799,94.857,512.735,510.593,0.0
51790.0,STARLINK-3631,PAYLOAD,2022-05-02 06:00:00,15.17497166,0.0001896,53.2175,187.5098,40.1479,289.0552,-0.033133,-0.00625422,0.0,0 STARLINK-3631,1 51790U 22017Y   22122.25001157 -.00625422  00000-0 -33133-1 0  9991,2 51790  53.2175 187.5098 0001896  40.1479 289.0552 15.17497166 11497,6891.545,94.893,514.716,512.1030000000002,0.0
51790.0,STARLINK-3631,PAYLOAD,2022-05-02 14:00:01,15.17051646,0.0001981,53.2175,185.9984,32.0584,318.8748,-0.038681,-0.00721844,0.0,0 STARLINK-3631,1 51790U 22017Y   22122.58334491 -.00721844  00000-0 -38681-1 0  9995,2 51790  53.2175 185.9984 0001981  32.0584 318.8748 15.17051646  3640,6892.894,94.921,516.124,513.393,0.0
51790.0,STARLINK-3631,PAYLOAD,2022-05-02 22:00:01,15.1654308,0.0001688,53.2175,184.4829,38.3456,333.8034,-0.039414,-0.00724611,0.0,0 STARLINK-3631,1 51790U 22017Y   22122.91668981 -.00724611  00000-0 -39414-1 0  9996,2 51790  53.2175 184.4829 0001688  38.3456 333.8034 15.16543080 11598,6894.435,94.953,517.464,515.136,0.0
51790.0,STARLINK-3631,PAYLOAD,2022-05-03 14:00:01,15.15520627,0.0001761,53.2175,181.4606,38.6756,13.8759,-0.040325,-0.00720296,0.0,0 STARLINK-3631,1 51790U 22017Y   22123.58334491 -.00720296  00000-0 -40325-1 0  9994,2 51790  53.2175 181.4606 0001761  38.6756  13.8759 15.15520627  3643,6897.535,95.017,520.615,518.186,0.0
51790.0,STARLINK-3631,PAYLOAD,2022-05-03 22:00:00,15.15011974,0.0001789,53.2176,179.9486,36.6136,35.2521,-0.041049,-0.00722517,0.0,0 STARLINK-3631,1 51790U 22017Y   22123.91667824 -.00722517  00000-0 -41049-1 0  9992,2 51790  53.2176 179.9486 0001789  36.6136  35.2521 15.15011974  3647,6899.079000000002,95.049,522.178,519.71,0.0
51790.0,STARLINK-3631,PAYLOAD,2022-05-04 06:00:02,15.14503125,0.000211,53.2176,178.4398,29.8727,60.7565,-0.041752,-0.00724252,0.0,0 STARLINK-3631,1 51790U 22017Y   22124.25002315 -.00724252  00000-0 -41752-1 0  9997,2 51790  53.2176 178.4398 0002110  29.8727  60.7565 15.14503125 11791,6900.624,95.081,523.945,521.033,0.0
51790.0,STARLINK-3631,PAYLOAD,2022-05-04 14:00:01,15.13989024,0.0001812,53.2174,176.9334,40.0979,68.5569,-0.041942,-0.00717476,0.0,0 STARLINK-3631,1 51790U 22017Y   22124.58334491 -.00717476  00000-0 -41942-1 0  9997,2 51790  53.2174 176.9334 0001812  40.0979  68.5569 15.13989024  3644,6902.187,95.113,525.302,522.8009999999998,0.0
51790.0,STARLINK-3631,PAYLOAD,2022-05-04 22:00:01,15.13481308,0.0001718,53.2175,175.425,43.3881,82.8052,-0.042772,-0.00720985,0.0,0 STARLINK-3631,1 51790U 22017Y   22124.91668981 -.00720985  00000-0 -42772-1 0  9999,2 51790  53.2175 175.4250 0001718  43.3881  82.8052 15.13481308  3647,6903.73,95.145,526.781,524.409,0.0
51790.0,STARLINK-3631,PAYLOAD,2022-05-05 14:00:01,15.12458068,0.00019,53.2174,172.4168,40.6478,118.595,-0.043656,-0.00715419,0.0,0 STARLINK-3631,1 51790U 22017Y   22125.58334491 -.00715419  00000-0 -43656-1 0  9997,2 51790  53.2174 172.4168 0001900  40.6478 118.5950 15.12458068  3657,6906.843000000003,95.209,530.021,527.396,0.0
51790.0,STARLINK-3631,PAYLOAD,2022-05-05 16:00:00,15.12335934,0.0001793,53.2171,172.0405,43.8728,209.3348,-0.04438,-0.00724146,0.0,0 STARLINK-3631,1 51790U 22017Y   22125.66667824 -.00724146  00000-0 -44380-1 0  9997,2 51790  53.2171 172.0405 0001793  43.8728 209.3348 15.12335934 12002,6907.215,95.217,530.319,527.842,0.0
51790.0,STARLINK-3631,PAYLOAD,2022-05-05 22:00:00,15.11951021,0.0001709,53.2174,170.9119,47.6714,127.2082,-0.044589,-0.0072003999999999,0.0,0 STARLINK-3631,1 51790U 22017Y   22125.91667824 -.00720040  00000-0 -44589-1 0  9995,2 51790  53.2174 170.9119 0001709  47.6714 127.2082 15.11951021  3641,6908.388000000001,95.241,531.433,529.072,0.0
51790.0,STARLINK-3631,PAYLOAD,2022-05-06 14:00:01,15.10928522,0.0001932,53.2173,167.9109,40.9784,163.3366,-0.045577,-0.00715631,0.0,0 STARLINK-3631,1 51790U 22017Y   22126.58334491 -.00715631  00000-0 -45577-1 0  9998,2 51790  53.2173 167.9109 0001932  40.9784 163.3366 15.10928522  3652,6911.504,95.306,534.7040000000002,532.034,0.0
51790.0,STARLINK-3631,PAYLOAD,2022-05-06 22:00:00,15.10420741,0.0001693,53.2174,166.4095,49.8291,168.2848,-0.046473,-0.00719187,0.0,0 STARLINK-3631,1 51790U 22017Y   22126.91667824 -.00719187  00000-0 -46473-1 0  9990,2 51790  53.2174 166.4095 0001693  49.8291 168.2848 15.10420741 12194,6913.053000000001,95.338,536.0880000000002,533.748,0.0
51790.0,STARLINK-3631,PAYLOAD,2022-05-07 14:00:01,15.09363492,0.0001611,53.2173,163.4152,53.3711,190.5085,-0.041557,-0.00630212,0.0,0 STARLINK-3631,1 51790U 22017Y   22127.58334491 -.00630212  00000-0 -41557-1 0  9994,2 51790  53.2173 163.4152 0001611  53.3711 190.5085 15.09363492  3638,6916.281,95.404,539.26,537.0319999999998,0.0
51790.0,STARLINK-3631,PAYLOAD,2022-05-07 22:00:00,15.08838872,0.0001693,53.2174,161.9166,49.0252,206.8123,-0.00018916,-3.297e-05,0.0,0 STARLINK-3631,1 51790U 22017Y   22127.91667824 -.00003297  00000-0 -18916-3 0  9992,2 51790  53.2174 161.9166 0001693  49.0252 206.8123 15.08838872 12349,6917.884,95.438,540.92,538.578,0.0
51790.0,STARLINK-3631,PAYLOAD,2022-05-08 14:00:01,15.08849623,0.0001788,53.218,158.9165,40.2265,238.9352,0.0010951,0.00017188,0.0,0 STARLINK-3631,1 51790U 22017Y   22128.58334491  .00017188  00000-0  10951-2 0  9999,2 51790  53.2180 158.9165 0001788  40.2265 238.9352 15.08849623 12440,6917.851,95.437,540.953,538.479,0.0
51790.0,STARLINK-3631,PAYLOAD,2022-05-08 20:00:01,15.08875335,0.0001718,53.2182,157.7927,46.2223,151.649,-0.005773,-0.00091094,0.0,0 STARLINK-3631,1 51790U 22017Y   22128.83334491 -.00091094  00000-0 -57730-2 0  9993,2 51790  53.2182 157.7927 0001718  46.2223 151.6490 15.08875335 12485,6917.772,95.435,540.826,538.4490000000002,0.0
51790.0,STARLINK-3631,PAYLOAD,2022-05-08 22:00:00,15.08833387,0.0001721999999999,53.2181,157.4184,48.1628,242.6238,-0.0018755,-0.00030008,0.0,0 STARLINK-3631,1 51790U 22017Y   22128.91667824 -.00030008  00000-0 -18755-2 0  9993,2 51790  53.2181 157.4184 0001722  48.1628 242.6238 15.08833387  3630,6917.901,95.438,540.957,538.5740000000002,0.0
51790.0,STARLINK-3631,PAYLOAD,2022-05-09 06:00:00,15.08823751,0.0001899,53.2183,155.9232,49.3864,252.9724,-0.0016124,-0.00025847,0.0,0 STARLINK-3631,1 51790U 22017Y   22129.25001157 -.00025847  00000-0 -16124-2 0  9995,2 51790  53.2183 155.9232 0001899  49.3864 252.9724 15.08823751 12558,6917.93,95.439,541.109,538.481,0.0
51790.0,STARLINK-3631,PAYLOAD,2022-05-09 14:00:01,15.08804687,0.0001997,53.2179,154.4277,44.6197,269.3627,0.0010862,0.00017025,0.0,0 STARLINK-3631,1 51790U 22017Y   22129.58335648  .00017025  00000-0  10862-2 0  9996,2 51790  53.2179 154.4277 0001997  44.6197 269.3627 15.08804687  3632,6917.988,95.44,541.235,538.472,0.0
